SERT 2                  
1 04327U 70009A   17345.85163979 -.00000044  00000-0 -31574-5 0  9995
2 04327  99.3043  70.3374 0004166 314.7410 151.5536 13.58470658371618
